NORAD_CAT_ID,OBJECT_NAME,OBJECT_TYPE,EPOCH,MEAN_MOTION,ECCENTRICITY,INCLINATION,RA_OF_ASC_NODE,ARG_OF_PERICENTER,MEAN_ANOMALY,BSTAR,MEAN_MOTION_DOT,MEAN_MOTION_DDOT,TLE_LINE0,TLE_LINE1,TLE_LINE2,SEMIMAJOR_AXIS,PERIOD,APOGEE,PERIGEE,DECAYED
55788.0,STARLINK-5804,PAYLOAD,2024-06-07 07:52:47,14.98376499,0.0002811,70.0038,19.1413,269.4306,90.6531,-0.00070847,-8.546e-05,0.0,0 STARLINK-5804,1 55788U 23028AZ  24159.32832730 -.00008546  00000-0 -70847-3 0  9991,2 55788  70.0038  19.1413 0002811 269.4306  90.6531 14.98376499 71095,6950.049,96.104,573.868,569.96,0.0
55788.0,STARLINK-5804,PAYLOAD,2024-06-07 22:18:01,14.98328341,0.000286,70.0014,17.6258,272.4576,87.6256,1.492e-05,8.5e-07,0.0,0 STARLINK-5804,1 55788U 23028AZ  24159.92918116  .00000085  00000-0  14920-4 0  9999,2 55788  70.0014  17.6258 0002860 272.4576  87.6256 14.98328341 71190,6950.198,96.107,574.051,570.075,0.0
55788.0,STARLINK-5804,PAYLOAD,2024-06-08 01:30:17,14.98329014,0.000256,70.0025,17.2891,273.9023,86.1844,3.502e-05,3.25e-06,0.0,0 STARLINK-5804,1 55788U 23028AZ  24160.06270129  .00000325  00000-0  35020-4 0  9992,2 55788  70.0025  17.2891 0002560 273.9023  86.1844 14.98329014 71208,6950.196,96.107,573.84,570.282,0.0
55788.0,STARLINK-5804,PAYLOAD,2024-06-08 07:54:49,14.98329518,0.0002516,70.0028,16.6158,273.6366,86.4505,-1.3146e-06,-1.09e-06,0.0,0 STARLINK-5804,1 55788U 23028AZ  24160.32974209 -.00000109  00000-0 -13146-5 0  9999,2 55788  70.0028  16.6158 0002516 273.6366  86.4505 14.98329518 71259,6950.194,96.107,573.808,570.311,0.0
55788.0,STARLINK-5804,PAYLOAD,2024-06-08 22:20:01,14.98322945,0.000311,70.0005,15.0995,269.6799,90.4003,0.00011738,1.308e-05,0.0,0 STARLINK-5804,1 55788U 23028AZ  24160.93057723  .00001308  00000-0  11738-3 0  9992,2 55788  70.0005  15.0995 0003110 269.6799  90.4003 14.98322945 71347,6950.215,96.107,574.241,569.918,0.0
55788.0,STARLINK-5804,PAYLOAD,2024-06-09 01:32:17,14.98333408,0.0002803,70.0008,14.7627,271.4013,88.6824,5.2199e-05,5.3e-06,0.0,0 STARLINK-5804,1 55788U 23028AZ  24161.06409588  .00000530  00000-0  52199-4 0  9990,2 55788  70.0008  14.7627 0002803 271.4013  88.6824 14.98333408 71353,6950.182,96.107,573.995,570.099,0.0
55788.0,STARLINK-5804,PAYLOAD,2024-06-09 20:45:55,14.98328296,0.0002346,70.0025,12.7469,273.621,86.4681,4.6171e-06,-3.8e-07,0.0,0 STARLINK-5804,1 55788U 23028AZ  24161.86522257 -.00000038  00000-0  46171-5 0  9995,2 55788  70.0025  12.7469 0002346 273.6210  86.4681 14.98328296 71478,6950.198,96.107,573.694,570.433,0.0
55788.0,STARLINK-5804,PAYLOAD,2024-06-09 22:22:03,14.98326799,0.0002484,70.0018,12.5782,273.5822,86.5053,-2.0792e-05,-3.41e-06,0.0,0 STARLINK-5804,1 55788U 23028AZ  24161.93198396 -.00000341  00000-0 -20792-4 0  9994,2 55788  70.0018  12.5782 0002484 273.5822  86.5053 14.98326799 71499,6950.203,96.107,573.794,570.341,0.0
55788.0,STARLINK-5804,PAYLOAD,2024-06-10 14:23:23,14.98328521,0.0003094,69.9999,10.8934,272.1573,87.9232,3.1715e-05,2.85e-06,0.0,0 STARLINK-5804,1 55788U 23028AZ  24162.59957978  .00000285  00000-0  31715-4 0  9998,2 55788  69.9999  10.8934 0003094 272.1573  87.9232 14.98328521 71590,6950.197,96.107,574.213,569.912,0.0
55788.0,STARLINK-5804,PAYLOAD,2024-06-10 20:47:55,14.98334531,0.0003065,70.0004,10.22,271.965,88.1158,1.2895e-05,6.1e-07,0.0,0 STARLINK-5804,1 55788U 23028AZ  24162.86661672  .00000061  00000-0  12895-4 0  9991,2 55788  70.0004  10.2200 0003065 271.9650  88.1158 14.98334531 71623,6950.179,96.107,574.174,569.914,0.0
55788.0,STARLINK-5804,PAYLOAD,2024-06-10 22:24:03,14.98334033,0.0003097,70.0004,10.0518,272.1859,87.8946,1.1103e-05,3.9e-07,0.0,0 STARLINK-5804,1 55788U 23028AZ  24162.93337696  .00000039  00000-0  11103-4 0  9991,2 55788  70.0004  10.0518 0003097 272.1859  87.8946 14.98334033 71642,6950.18,96.107,574.198,569.893,0.0
55788.0,STARLINK-5804,PAYLOAD,2024-06-11 14:25:24,14.98330704,0.0003035,70.0006,8.3685,273.0287,87.0525,1.3131e-05,6.4e-07,0.0,0 STARLINK-5804,1 55788U 23028AZ  24163.60097861  .00000064  00000-0  13131-4 0  9994,2 55788  70.0006   8.3685 0003035 273.0287  87.0525 14.98330704 71743,6950.191,96.107,574.165,569.946,0.0
55788.0,STARLINK-5804,PAYLOAD,2024-06-12 00:02:12,14.98334404,0.0003014,70.0005,7.3585,273.0927,86.9887,5.3271e-05,5.43e-06,0.0,0 STARLINK-5804,1 55788U 23028AZ  24164.00153447  .00000543  00000-0  53271-4 0  9993,2 55788  70.0005   7.3585 0003014 273.0927  86.9887 14.98334404 71793,6950.179,96.107,574.139,569.949,0.0
55788.0,STARLINK-5804,PAYLOAD,2024-06-12 06:26:45,14.98329028,0.0002993,70.0005,6.6852,273.1911,86.8905,-6.3793e-06,-1.69e-06,0.0,0 STARLINK-5804,1 55788U 23028AZ  24164.26857905 -.00000169  00000-0 -63793-5 0  9998,2 55788  70.0005   6.6852 0002993 273.1911  86.8905 14.98329028 71832,6950.196,96.107,574.141,569.981,0.0
55788.0,STARLINK-5804,PAYLOAD,2024-06-12 22:28:06,14.98325572,0.0002856,70.0008,5.0036,265.8082,94.275,-6.9798e-05,-9.26e-06,0.0,0 STARLINK-5804,1 55788U 23028AZ  24164.93618375 -.00000926  00000-0 -69798-4 0  9999,2 55788  70.0008   5.0036 0002856 265.8082  94.2750 14.98325572 71940,6950.207,96.107,574.057,570.087,0.0
55788.0,STARLINK-5804,PAYLOAD,2024-06-13 06:28:46,14.98332409,0.0002907,70.0008,4.1611,270.4837,89.5989,-0.00010976,-1.402e-05,0.0,0 STARLINK-5804,1 55788U 23028AZ  24165.26998098 -.00001402  00000-0 -10976-3 0  9992,2 55788  70.0008   4.1611 0002907 270.4837  89.5989 14.98332409 71988,6950.185,96.107,574.071,570.03,0.0
55788.0,STARLINK-5804,PAYLOAD,2024-06-13 14:29:28,14.98306082,0.0002796,70.0008,3.3202,266.6721,93.4119,-0.00027442,-3.364e-05,0.0,0 STARLINK-5804,1 55788U 23028AZ  24165.60380504 -.00003364  00000-0 -27442-3 0  9992,2 55788  70.0008   3.3202 0002796 266.6721  93.4119 14.98306082 72045,6950.267,96.109,574.075,570.189,0.0
55788.0,STARLINK-5804,PAYLOAD,2024-06-13 22:30:08,14.98315031,0.000299,70.0001,2.4773,269.5204,90.5613,-0.00015678,-1.962e-05,0.0,0 STARLINK-5804,1 55788U 23028AZ  24165.93760036 -.00001962  00000-0 -15678-3 0  9990,2 55788  70.0001   2.4773 0002990 269.5204  90.5613 14.98315031 72091,6950.239,96.108,574.182,570.026,0.0
55788.0,STARLINK-5804,PAYLOAD,2024-06-14 14:31:28,14.98321569,0.0003269,69.9999,0.7937,271.5884,88.49,6.6075e-05,6.95e-06,0.0,0 STARLINK-5804,1 55788U 23028AZ  24166.60519335  .00000695  00000-0  66075-4 0  9997,2 55788  69.9999   0.7937 0003269 271.5884  88.4900 14.98321569 72193,6950.219,96.108,574.356,569.812,0.0
55788.0,STARLINK-5804,PAYLOAD,2024-06-14 22:32:08,14.98328005,0.0003055,70.0004,359.9528,269.4183,90.6626,0.00011423,1.27e-05,0.0,0 STARLINK-5804,1 55788U 23028AZ  24166.93898935  .00001270  00000-0  11423-3 0  9995,2 55788  70.0004 359.9528 0003055 269.4183  90.6626 14.98328005 72247,6950.199,96.107,574.187,569.941,0.0
55788.0,STARLINK-5804,PAYLOAD,2024-06-15 14:33:28,14.98326292,0.0003072,70.0003,358.2693,271.0083,89.0724,0.00039326,4.602e-05,0.0,0 STARLINK-5804,1 55788U 23028AZ  24167.60658232  .00004602  00000-0  39326-3 0  9998,2 55788  70.0003 358.2693 0003072 271.0083  89.0724 14.98326292 72346,6950.204,96.107,574.204,569.934,0.0
55788.0,STARLINK-5804,PAYLOAD,2024-06-15 22:34:08,14.98342283,0.0003169,70.0001,357.4271,270.3817,89.6978,0.00027726,3.218e-05,0.0,0 STARLINK-5804,1 55788U 23028AZ  24167.94037471  .00003218  00000-0  27726-3 0  9994,2 55788  70.0001 357.4271 0003169 270.3817  89.6978 14.98342283 72391,6950.155,96.106,574.222,569.817,0.0
55788.0,STARLINK-5804,PAYLOAD,2024-06-16 14:35:29,14.98337294,0.000307,70.0001,355.743,270.1482,89.9326,4.4131e-06,-4e-07,0.0,0 STARLINK-5804,1 55788U 23028AZ  24168.60798108 -.00000040  00000-0  44131-5 0  9991,2 55788  70.0001 355.7430 0003070 270.1482  89.9326 14.98337294 72493,6950.17,96.107,574.169,569.902,0.0
55788.0,STARLINK-5804,PAYLOAD,2024-06-16 22:36:09,14.98338499,0.0003092,70.0002,354.9015,270.1685,89.912,-1.3958e-05,-2.6e-06,0.0,0 STARLINK-5804,1 55788U 23028AZ  24168.94177876 -.00000260  00000-0 -13958-4 0  9998,2 55788  70.0002 354.9015 0003092 270.1685  89.9120 14.98338499 72549,6950.167,96.106,574.181,569.883,0.0
55788.0,STARLINK-5804,PAYLOAD,2024-06-17 21:02:02,14.98337226,0.0002862,70.0009,352.5457,277.5873,82.4961,-0.00013501,-1.704e-05,0.0,0 STARLINK-5804,1 55788U 23028AZ  24169.87641869 -.00001704  00000-0 -13501-3 0  9996,2 55788  70.0009 352.5457 0002862 277.5873  82.4961 14.98337226 72676,6950.171,96.107,574.025,570.046,0.0
55788.0,STARLINK-5804,PAYLOAD,2024-06-17 22:38:10,14.98337219,0.000286,70.001,352.3774,277.7229,82.3605,-0.00013175,-1.665e-05,0.0,0 STARLINK-5804,1 55788U 23028AZ  24169.94317829 -.00001665  00000-0 -13175-3 0  9993,2 55788  70.0010 352.3774 0002860 277.7229  82.3605 14.98337219 72691,6950.171,96.107,574.023,570.048,0.0
55788.0,STARLINK-5804,PAYLOAD,2024-06-18 13:03:24,14.98311927,0.0002859,70.0008,350.8623,274.3626,85.7206,-0.00022083,-2.726e-05,0.0,0 STARLINK-5804,1 55788U 23028AZ  24170.54403579 -.00002726  00000-0 -22083-3 0  9996,2 55788  70.0008 350.8623 0002859 274.3626  85.7206 14.98311927 72777,6950.249,96.108,574.101,570.127,0.0
55788.0,STARLINK-5804,PAYLOAD,2024-06-18 14:39:32,14.98312467,0.0002815,70.0007,350.6938,274.8227,85.2611,-0.00021245,-2.626e-05,0.0,0 STARLINK-5804,1 55788U 23028AZ  24170.61079594 -.00002626  00000-0 -21245-3 0  9998,2 55788  70.0007 350.6938 0002815 274.8227  85.2611 14.98312467 72794,6950.247,96.108,574.069,570.156,0.0
55788.0,STARLINK-5804,PAYLOAD,2024-06-18 21:04:05,14.98307543,0.0002554,70.0016,350.0234,262.699,97.3879,-0.00022201,-2.739e-05,0.0,0 STARLINK-5804,1 55788U 23028AZ  24170.87784398 -.00002739  00000-0 -22201-3 0  9999,2 55788  70.0016 350.0234 0002554 262.6990  97.3879 14.98307543 72833,6950.262,96.108,573.902,570.352,0.0
55788.0,STARLINK-5804,PAYLOAD,2024-06-19 05:04:45,14.98316426,0.0002901,70.0008,349.1795,268.6397,91.443,-0.00011244,-1.434e-05,0.0,0 STARLINK-5804,1 55788U 23028AZ  24171.21163642 -.00001434  00000-0 -11244-3 0  9997,2 55788  70.0008 349.1795 0002901 268.6397  91.4430 14.98316426 72870,6950.235,96.108,574.116,570.084,0.0
